CCSDS_OMM_VERS = 2.0
CREATION_DATE  = 
ORIGINATOR     = 

OBJECT_NAME    = ATLAS CENTAUR 2
OBJECT_ID      = 1963-047A
CENTER_NAME    = EARTH
REF_FRAME      = TEME
TIME_SYSTEM    = UTC
MEAN_ELEMENT_THEORY = SGP/SGP4

EPOCH          = 2026-02-10T06:09:29.519424
MEAN_MOTION    = 14.11990536
ECCENTRICITY   = .0548128
INCLINATION    = 30.3571
RA_OF_ASC_NODE = 348.9428
ARG_OF_PERICENTER = 198.5594
MEAN_ANOMALY   = 159.4263

EPHEMERIS_TYPE = 0
CLASSIFICATION_TYPE = U
NORAD_CAT_ID   = 694
ELEMENT_SET_NO = 999
REV_AT_EPOCH   = 12774
BSTAR          = .15435E-3
MEAN_MOTION_DOT = .1379E-4
MEAN_MOTION_DDOT = 0

CCSDS_OMM_VERS = 2.0
CREATION_DATE  = 
ORIGINATOR     = 

OBJECT_NAME    = THOR AGENA D R/B
OBJECT_ID      = 1964-002A
CENTER_NAME    = EARTH
REF_FRAME      = TEME
TIME_SYSTEM    = UTC
MEAN_ELEMENT_THEORY = SGP/SGP4

EPOCH          = 2026-02-10T22:31:16.878720
MEAN_MOTION    = 14.34003459
ECCENTRICITY   = .00325542
INCLINATION    = 99.1230
RA_OF_ASC_NODE = 53.8189
ARG_OF_PERICENTER = 338.0776
MEAN_ANOMALY   = 21.9012

EPHEMERIS_TYPE = 0
CLASSIFICATION_TYPE = U
NORAD_CAT_ID   = 733
ELEMENT_SET_NO = 999
REV_AT_EPOCH   = 23446
BSTAR          = .11578048E-3
MEAN_MOTION_DOT = .276E-5
MEAN_MOTION_DDOT = 0

CCSDS_OMM_VERS = 2.0
CREATION_DATE  = 
ORIGINATOR     = 

OBJECT_NAME    = SL-3 R/B
OBJECT_ID      = 1964-053B
CENTER_NAME    = EARTH
REF_FRAME      = TEME
TIME_SYSTEM    = UTC
MEAN_ELEMENT_THEORY = SGP/SGP4

EPOCH          = 2026-02-10T10:54:58.366080
MEAN_MOTION    = 14.61339005
ECCENTRICITY   = .007841
INCLINATION    = 65.0764
RA_OF_ASC_NODE = 51.0806
ARG_OF_PERICENTER = 300.8472
MEAN_ANOMALY   = 58.4930

EPHEMERIS_TYPE = 0
CLASSIFICATION_TYPE = U
NORAD_CAT_ID   = 877
ELEMENT_SET_NO = 999
REV_AT_EPOCH   = 26281
BSTAR          = .10277767E-3
MEAN_MOTION_DOT = .406E-5
MEAN_MOTION_DDOT = 0

CCSDS_OMM_VERS = 2.0
CREATION_DATE  = 
ORIGINATOR     = 

OBJECT_NAME    = SL-8 R/B
OBJECT_ID      = 1967-045B
CENTER_NAME    = EARTH
REF_FRAME      = TEME
TIME_SYSTEM    = UTC
MEAN_ELEMENT_THEORY = SGP/SGP4

EPOCH          = 2026-02-10T10:44:27.479328
MEAN_MOTION    = 14.45595013
ECCENTRICITY   = .00631355
INCLINATION    = 74.0103
RA_OF_ASC_NODE = 38.9626
ARG_OF_PERICENTER = 52.0645
MEAN_ANOMALY   = 308.6195

EPHEMERIS_TYPE = 0
CLASSIFICATION_TYPE = U
NORAD_CAT_ID   = 2802
ELEMENT_SET_NO = 999
REV_AT_EPOCH   = 8508
BSTAR          = .10793991E-3
MEAN_MOTION_DOT = .363E-5
MEAN_MOTION_DDOT = 0

CCSDS_OMM_VERS = 2.0
CREATION_DATE  = 
ORIGINATOR     = 

OBJECT_NAME    = SL-8 R/B
OBJECT_ID      = 1968-040B
CENTER_NAME    = EARTH
REF_FRAME      = TEME
TIME_SYSTEM    = UTC
MEAN_ELEMENT_THEORY = SGP/SGP4

EPOCH          = 2026-02-10T22:54:21.408480
MEAN_MOTION    = 15.03052262
ECCENTRICITY   = .00251727
INCLINATION    = 74.0320
RA_OF_ASC_NODE = 8.3100
ARG_OF_PERICENTER = 199.9916
MEAN_ANOMALY   = 160.0289

EPHEMERIS_TYPE = 0
CLASSIFICATION_TYPE = U
NORAD_CAT_ID   = 3230
ELEMENT_SET_NO = 999
REV_AT_EPOCH   = 8599
BSTAR          = .26537365E-3
MEAN_MOTION_DOT = .3559E-4
MEAN_MOTION_DDOT = 0

CCSDS_OMM_VERS = 2.0
CREATION_DATE  = 
ORIGINATOR     = 

OBJECT_NAME    = OAO 2
OBJECT_ID      = 1968-110A
CENTER_NAME    = EARTH
REF_FRAME      = TEME
TIME_SYSTEM    = UTC
MEAN_ELEMENT_THEORY = SGP/SGP4

EPOCH          = 2026-02-10T11:07:54.816096
MEAN_MOTION    = 14.47291020
ECCENTRICITY   = .00057253
INCLINATION    = 34.9940
RA_OF_ASC_NODE = 57.2275
ARG_OF_PERICENTER = 334.0135
MEAN_ANOMALY   = 26.0268

EPHEMERIS_TYPE = 0
CLASSIFICATION_TYPE = U
NORAD_CAT_ID   = 3597
ELEMENT_SET_NO = 999
REV_AT_EPOCH   = 1515
BSTAR          = .84821453E-4
MEAN_MOTION_DOT = .296E-5
MEAN_MOTION_DDOT = 0

CCSDS_OMM_VERS = 2.0
CREATION_DATE  = 
ORIGINATOR     = 

OBJECT_NAME    = ISIS 1
OBJECT_ID      = 1969-009A
CENTER_NAME    = EARTH
REF_FRAME      = TEME
TIME_SYSTEM    = UTC
MEAN_ELEMENT_THEORY = SGP/SGP4

EPOCH          = 2026-02-10T19:29:21.637536
MEAN_MOTION    = 11.30403629
ECCENTRICITY   = .17078395
INCLINATION    = 88.4555
RA_OF_ASC_NODE = 158.2371
ARG_OF_PERICENTER = 143.3921
MEAN_ANOMALY   = 229.7066

EPHEMERIS_TYPE = 0
CLASSIFICATION_TYPE = U
NORAD_CAT_ID   = 3669
ELEMENT_SET_NO = 999
REV_AT_EPOCH   = 34549
BSTAR          = .21404677E-3
MEAN_MOTION_DOT = .319E-5
MEAN_MOTION_DDOT = 0

CCSDS_OMM_VERS = 2.0
CREATION_DATE  = 
ORIGINATOR     = 

OBJECT_NAME    = SERT 2
OBJECT_ID      = 1970-009A
CENTER_NAME    = EARTH
REF_FRAME      = TEME
TIME_SYSTEM    = UTC
MEAN_ELEMENT_THEORY = SGP/SGP4

EPOCH          = 2026-02-10T11:08:16.407456
MEAN_MOTION    = 13.58727194
ECCENTRICITY   = .00040727
INCLINATION    = 99.2722
RA_OF_ASC_NODE = 346.0528
ARG_OF_PERICENTER = 228.9851
MEAN_ANOMALY   = 246.5855

EPHEMERIS_TYPE = 0
CLASSIFICATION_TYPE = U
NORAD_CAT_ID   = 4327
ELEMENT_SET_NO = 999
REV_AT_EPOCH   = 77619
BSTAR          = .10227994E-3
MEAN_MOTION_DOT = .33E-6
MEAN_MOTION_DDOT = 0

CCSDS_OMM_VERS = 2.0
CREATION_DATE  = 
ORIGINATOR     = 

OBJECT_NAME    = SL-3 R/B
OBJECT_ID      = 1971-028B
CENTER_NAME    = EARTH
REF_FRAME      = TEME
TIME_SYSTEM    = UTC
MEAN_ELEMENT_THEORY = SGP/SGP4

EPOCH          = 2026-02-10T21:47:14.367552
MEAN_MOTION    = 15.58978176
ECCENTRICITY   = .00172527
INCLINATION    = 81.2346
RA_OF_ASC_NODE = 85.0579
ARG_OF_PERICENTER = 29.0520
MEAN_ANOMALY   = 331.1688

EPHEMERIS_TYPE = 0
CLASSIFICATION_TYPE = U
NORAD_CAT_ID   = 5118
ELEMENT_SET_NO = 999
REV_AT_EPOCH   = 98449
BSTAR          = .40589297E-3
MEAN_MOTION_DOT = .31862E-3
MEAN_MOTION_DDOT = 0

CCSDS_OMM_VERS = 2.0
CREATION_DATE  = 
ORIGINATOR     = 

OBJECT_NAME    = ASTEX 1
OBJECT_ID      = 1971-089A
CENTER_NAME    = EARTH
REF_FRAME      = TEME
TIME_SYSTEM    = UTC
MEAN_ELEMENT_THEORY = SGP/SGP4

EPOCH          = 2026-02-10T20:28:44.826240
MEAN_MOTION    = 14.50738383
ECCENTRICITY   = .00160502
INCLINATION    = 92.7151
RA_OF_ASC_NODE = 143.0775
ARG_OF_PERICENTER = 167.3256
MEAN_ANOMALY   = 192.8357

EPHEMERIS_TYPE = 0
CLASSIFICATION_TYPE = U
NORAD_CAT_ID   = 5560
ELEMENT_SET_NO = 999
REV_AT_EPOCH   = 85841
BSTAR          = .16976453E-3
MEAN_MOTION_DOT = .667E-5
MEAN_MOTION_DDOT = 0

CCSDS_OMM_VERS = 2.0
CREATION_DATE  = 
ORIGINATOR     = 

OBJECT_NAME    = SL-8 R/B
OBJECT_ID      = 1971-119B
CENTER_NAME    = EARTH
REF_FRAME      = TEME
TIME_SYSTEM    = UTC
MEAN_ELEMENT_THEORY = SGP/SGP4

EPOCH          = 2026-02-10T22:20:54.927456
MEAN_MOTION    = 14.37023859
ECCENTRICITY   = .05535356
INCLINATION    = 73.8852
RA_OF_ASC_NODE = 225.7048
ARG_OF_PERICENTER = 197.8335
MEAN_ANOMALY   = 160.2700

EPHEMERIS_TYPE = 0
CLASSIFICATION_TYPE = U
NORAD_CAT_ID   = 5730
ELEMENT_SET_NO = 999
REV_AT_EPOCH   = 65164
BSTAR          = .68597743E-3
MEAN_MOTION_DOT = .13228E-3
MEAN_MOTION_DDOT = 0

CCSDS_OMM_VERS = 2.0
CREATION_DATE  = 
ORIGINATOR     = 

OBJECT_NAME    = OAO 3 (COPERNICUS)
OBJECT_ID      = 1972-065A
CENTER_NAME    = EARTH
REF_FRAME      = TEME
TIME_SYSTEM    = UTC
MEAN_ELEMENT_THEORY = SGP/SGP4

EPOCH          = 2026-02-10T11:05:10.346784
MEAN_MOTION    = 14.59973531
ECCENTRICITY   = .00071757
INCLINATION    = 35.0055
RA_OF_ASC_NODE = 92.4378
ARG_OF_PERICENTER = 296.1483
MEAN_ANOMALY   = 190.3865

EPHEMERIS_TYPE = 0
CLASSIFICATION_TYPE = U
NORAD_CAT_ID   = 6153
ELEMENT_SET_NO = 999
REV_AT_EPOCH   = 84221
BSTAR          = .92844347E-4
MEAN_MOTION_DOT = .431E-5
MEAN_MOTION_DDOT = 0

