ATLAS CENTAUR 2         
1 00694U 63047A   26041.25659166  .00001379  00000+0  15435-3 0  9992
2 00694  30.3571 348.9428 0548128 198.5594 159.4263 14.11990536127747
THOR AGENA D R/B        
1 00733U 64002A   26041.93838980  .00000276  00000+0  11578-3 0  9995
2 00733  99.1230  53.8189 0032554 338.0776  21.9012 14.34003459234463
SL-3 R/B                
1 00877U 64053B   26041.45484220  .00000406  00000+0  10278-3 0  9992
2 00877  65.0764  51.0806 0078410 300.8472  58.4930 14.61339005262816
SL-8 R/B                
1 02802U 67045B   26041.44754027  .00000363  00000+0  10794-3 0  9995
2 02802  74.0103  38.9626 0063135  52.0645 308.6195 14.45595013 85083
SL-8 R/B                
1 03230U 68040B   26041.95441445  .00003559  00000+0  26537-3 0  9992
2 03230  74.0320   8.3100 0025172 199.9916 160.0289 15.03052262 85992
OAO 2                   
1 03597U 68110A   26041.46382889  .00000296  00000+0  84821-4 0  9994
2 03597  34.9940  57.2275 0005725 334.0135  26.0268 14.47291020 15157
ISIS 1                  
1 03669U 69009A   26041.81205599  .00000319  00000+0  21405-3 0  9997
2 03669  88.4555 158.2371 1707839 143.3921 229.7066 11.30403629345492
SERT 2                  
1 04327U 70009A   26041.46407879  .00000033  00000+0  10228-3 0  9991
2 04327  99.2722 346.0528 0004072 228.9851 246.5855 13.58727194776197
SL-3 R/B                
1 05118U 71028B   26041.90780518  .00031862  00000+0  40589-3 0  9992
2 05118  81.2346  85.0579 0017252  29.0520 331.1688 15.58978176984491
ASTEX 1                 
1 05560U 71089A   26041.85329660  .00000667  00000+0  16976-3 0  9993
2 05560  92.7151 143.0775 0016050 167.3256 192.8357 14.50738383858415
SL-8 R/B                
1 05730U 71119B   26041.93119129  .00013228  00000+0  68598-3 0  9996
2 05730  73.8852 225.7048 0553535 197.8335 160.2700 14.37023859651640
OAO 3 (COPERNICUS)      
1 06153U 72065A   26041.46192531  .00000431  00000+0  92844-4 0  9997
2 06153  35.0055  92.4378 0007175 296.1483 190.3865 14.59973531842217
